"CCSDS_OMM_VERS","COMMENT","CREATION_DATE","ORIGINATOR","OBJECT_NAME","OBJECT_ID","CENTER_NAME","REF_FRAME","TIME_SYSTEM","MEAN_ELEMENT_THEORY","EPOCH","MEAN_MOTION","ECCENTRICITY","INCLINATION","RA_OF_ASC_NODE","ARG_OF_PERICENTER","MEAN_ANOMALY","EPHEMERIS_TYPE","CLASSIFICATION_TYPE","NORAD_CAT_ID","ELEMENT_SET_NO","REV_AT_EPOCH","BSTAR","MEAN_MOTION_DOT","MEAN_MOTION_DDOT","SEMIMAJOR_AXIS","PERIOD","APOAPSIS","PERIAPSIS","OBJECT_TYPE","RCS_SIZE","COUNTRY_CODE","LAUNCH_DATE","SITE","DECAY_DATE","FILE","GP_ID","TLE_LINE0","TLE_LINE1","TLE_LINE2"
"2.0","GENERATED VIA SPACE-TRACK.ORG API","2023-07-24T19:17:50","18 SPCS","CARTOSAT 3","2019-081A","EARTH","TEME","UTC","SGP4","2023-07-24T13:54:03.265344","15.19267151","0.00108140","97.3434","262.5173","244.9165","115.0948","0","U","44804","999","20274","0.00022055000000","0.00004590","0.0000000000000","6886.191","94.783","515.503","500.609","PAYLOAD","LARGE","IND","2019-11-27","SRI",null,"3963756","235067342","0 CARTOSAT 3","1 44804U 19081A   23205.57920446  .00004590  00000-0  22055-3 0  9993","2 44804  97.3434 262.5173 0010814 244.9165 115.0948 15.19267151202744"
"2.0","GENERATED VIA SPACE-TRACK.ORG API","2023-07-25T17:36:23","18 SPCS","CARTOSAT 3","2019-081A","EARTH","TEME","UTC","SGP4","2023-07-25T13:36:41.868000","15.19277294","0.00108590","97.3435","263.4781","240.9593","119.0555","0","U","44804","999","20289","0.00022623000000","0.00004712","0.0000000000000","6886.161","94.782","515.503","500.548","PAYLOAD","LARGE","IND","2019-11-27","SRI",null,"3963759","235122273","0 CARTOSAT 3","1 44804U 19081A   23206.56715125  .00004712  00000-0  22623-3 0  9996","2 44804  97.3435 263.4781 0010859 240.9593 119.0555 15.19277294202893"
"2.0","GENERATED VIA SPACE-TRACK.ORG API","2023-07-26T18:44:00","18 SPCS","CARTOSAT 3","2019-081A","EARTH","TEME","UTC","SGP4","2023-07-26T13:19:19.830432","15.19289778","0.00109260","97.3436","264.4389","236.8480","123.1707","0","U","44804","999","20304","0.00026390000000","0.00005510","0.0000000000000","6886.123","94.781","515.512","500.464","PAYLOAD","LARGE","IND","2019-11-27","SRI",null,"3963761","235149983","0 CARTOSAT 3","1 44804U 19081A   23207.55509063  .00005510  00000-0  26390-3 0  9990","2 44804  97.3436 264.4389 0010926 236.8480 123.1707 15.19289778203046"
"2.0","GENERATED VIA SPACE-TRACK.ORG API","2023-07-26T22:26:13","18 SPCS","CARTOSAT 3","2019-081A","EARTH","TEME","UTC","SGP4","2023-07-26T18:03:51.345504","15.19291995","0.00109420","97.3437","264.6310","236.0490","123.9705","0","U","44804","999","20302","0.00026207000000","0.00005472","0.0000000000000","6886.116","94.781","515.516","500.446","PAYLOAD","LARGE","IND","2019-11-27","SRI",null,"3963827","235159806","0 CARTOSAT 3","1 44804U 19081A   23207.75267761  .00005472  00000-0  26207-3 0  9992","2 44804  97.3437 264.6310 0010942 236.0490 123.9705 15.19291995203022"
"2.0","GENERATED VIA SPACE-TRACK.ORG API","2023-07-27T02:28:32","18 SPCS","CARTOSAT 3","2019-081A","EARTH","TEME","UTC","SGP4","2023-07-26T21:13:32.355264","15.19292948","0.00109470","97.3437","264.7591","235.5232","124.4969","0","U","44804","999","20309","0.00025260000000","0.00005271","0.0000000000000","6886.113","94.781","515.516","500.440","PAYLOAD","LARGE","IND","2019-11-27","SRI",null,"3963989","235182601","0 CARTOSAT 3","1 44804U 19081A   23207.88440226  .00005271  00000-0  25260-3 0  9990","2 44804  97.3437 264.7591 0010947 235.5232 124.4969 15.19292948203091"
"2.0","GENERATED VIA SPACE-TRACK.ORG API","2023-07-27T06:26:13","18 SPCS","CARTOSAT 3","2019-081A","EARTH","TEME","UTC","SGP4","2023-07-27T03:32:54.322944","15.19295907","0.00109570","97.3437","265.0153","234.4970","125.5244","0","U","44804","999","20308","0.00024952000000","0.00005207","0.0000000000000","6886.104","94.781","515.514","500.424","PAYLOAD","LARGE","IND","2019-11-27","SRI",null,"3964014","235191820","0 CARTOSAT 3","1 44804U 19081A   23208.14785096  .00005207  00000-0  24952-3 0  9993","2 44804  97.3437 265.0153 0010957 234.4970 125.5244 15.19295907203082"
"2.0","GENERATED VIA SPACE-TRACK.ORG API","2023-07-27T14:26:13","18 SPCS","CARTOSAT 3","2019-081A","EARTH","TEME","UTC","SGP4","2023-07-27T09:52:16.255200","15.19297895","0.00109860","97.3438","265.2715","233.4443","126.5781","0","U","44804","999","20312","0.00023309000000","0.00004860","0.0000000000000","6886.098","94.781","515.528","500.398","PAYLOAD","LARGE","IND","2019-11-27","SRI",null,"3964347","235199522","0 CARTOSAT 3","1 44804U 19081A   23208.41129925  .00004860  00000-0  23309-3 0  9995","2 44804  97.3438 265.2715 0010986 233.4443 126.5781 15.19297895203125"
"2.0","GENERATED VIA SPACE-TRACK.ORG API","2023-07-27T20:22:52","18 SPCS","CARTOSAT 3","2019-081A","EARTH","TEME","UTC","SGP4","2023-07-27T14:36:47.686464","15.19299519","0.00110030","97.3438","265.4636","232.6820","127.3413","0","U","44804","999","20320","0.00021783000000","0.00004537","0.0000000000000","6886.093","94.781","515.535","500.382","PAYLOAD","LARGE","IND","2019-11-27","SRI",null,"3964647","235224722","0 CARTOSAT 3","1 44804U 19081A   23208.60888526  .00004537  00000-0  21783-3 0  9990","2 44804  97.3438 265.4636 0011003 232.6820 127.3413 15.19299519203205"
"2.0","GENERATED VIA SPACE-TRACK.ORG API","2023-07-27T22:16:13","18 SPCS","CARTOSAT 3","2019-081A","EARTH","TEME","UTC","SGP4","2023-07-27T17:46:28.623648","15.19300819","0.00110100","97.3438","265.5917","232.1766","127.8473","0","U","44804","999","20317","0.00021464000000","0.00004470","0.0000000000000","6886.089","94.780","515.536","500.373","PAYLOAD","LARGE","IND","2019-11-27","SRI",null,"3964660","235234246","0 CARTOSAT 3","1 44804U 19081A   23208.74060907  .00004470  00000-0  21464-3 0  9992","2 44804  97.3438 265.5917 0011010 232.1766 127.8473 15.19300819203173"
"2.0","GENERATED VIA SPACE-TRACK.ORG API","2023-07-28T02:29:53","18 SPCS","CARTOSAT 3","2019-081A","EARTH","TEME","UTC","SGP4","2023-07-27T20:56:09.549600","15.19302169","0.00110210","97.3439","265.7198","231.6822","128.3423","0","U","44804","999","20324","0.00021478000000","0.00004473","0.0000000000000","6886.085","94.780","515.540","500.361","PAYLOAD","LARGE","IND","2019-11-27","SRI",null,"3964919","235258820","0 CARTOSAT 3","1 44804U 19081A   23208.87233275  .00004473  00000-0  21478-3 0  9994","2 44804  97.3439 265.7198 0011021 231.6822 128.3423 15.19302169203245"
"2.0","GENERATED VIA SPACE-TRACK.ORG API","2023-07-28T06:26:13","18 SPCS","CARTOSAT 3","2019-081A","EARTH","TEME","UTC","SGP4","2023-07-28T03:15:31.380768","15.19304780","0.00110380","97.3439","265.9760","230.6796","129.3461","0","U","44804","999","20323","0.00021007000000","0.00004374","0.0000000000000","6886.077","94.780","515.543","500.342","PAYLOAD","LARGE","IND","2019-11-27","SRI",null,"3964962","235268798","0 CARTOSAT 3","1 44804U 19081A   23209.13577987  .00004374  00000-0  21007-3 0  9993","2 44804  97.3439 265.9760 0011038 230.6796 129.3461 15.19304780203232"
"2.0","GENERATED VIA SPACE-TRACK.ORG API","2023-07-28T14:16:12","18 SPCS","CARTOSAT 3","2019-081A","EARTH","TEME","UTC","SGP4","2023-07-28T09:34:53.197248","15.19306191","0.00110760","97.3440","266.2321","229.7818","130.2448","0","U","44804","999","20327","0.00019665000000","0.00004090","0.0000000000000","6886.073","94.780","515.565","500.311","PAYLOAD","LARGE","IND","2019-11-27","SRI",null,"3965253","235275530","0 CARTOSAT 3","1 44804U 19081A   23209.39922682  .00004090  00000-0  19665-3 0  9999","2 44804  97.3440 266.2321 0011076 229.7818 130.2448 15.19306191203275"
"2.0","GENERATED VIA SPACE-TRACK.ORG API","2023-07-28T18:25:04","18 SPCS","CARTOSAT 3","2019-081A","EARTH","TEME","UTC","SGP4","2023-07-28T14:19:24.528288","15.19308005","0.00110830","97.3439","266.4243","228.9312","131.0966","0","U","44804","999","20335","0.00019283000000","0.00004010","0.0000000000000","6886.068","94.780","515.565","500.301","PAYLOAD","LARGE","IND","2019-11-27","SRI",null,"3965518","235300414","0 CARTOSAT 3","1 44804U 19081A   23209.59681167  .00004010  00000-0  19283-3 0  9999","2 44804  97.3439 266.4243 0011083 228.9312 131.0966 15.19308005203355"
"2.0","GENERATED VIA SPACE-TRACK.ORG API","2023-07-28T22:16:12","18 SPCS","CARTOSAT 3","2019-081A","EARTH","TEME","UTC","SGP4","2023-07-28T19:03:55.844640","15.19309713","0.00110940","97.3439","266.6164","228.1103","131.9186","0","U","44804","999","20333","0.00019198000000","0.00003992","0.0000000000000","6886.063","94.780","515.567","500.288","PAYLOAD","LARGE","IND","2019-11-27","SRI",null,"3965535","235309471","0 CARTOSAT 3","1 44804U 19081A   23209.79439635  .00003992  00000-0  19198-3 0  9995","2 44804  97.3439 266.6164 0011094 228.1103 131.9186 15.19309713203339"
"2.0","GENERATED VIA SPACE-TRACK.ORG API","2023-07-29T06:26:13","18 SPCS","CARTOSAT 3","2019-081A","EARTH","TEME","UTC","SGP4","2023-07-29T02:58:07.978080","15.19313160","0.00111090","97.3439","266.9367","226.9006","133.1301","0","U","44804","999","20338","0.00019829000000","0.00004126","0.0000000000000","6886.052","94.780","515.567","500.267","PAYLOAD","LARGE","IND","2019-11-27","SRI",null,"3965867","235316707","0 CARTOSAT 3","1 44804U 19081A   23210.12370345  .00004126  00000-0  19829-3 0  9997","2 44804  97.3439 266.9367 0011109 226.9006 133.1301 15.19313160203381"
"2.0","GENERATED VIA SPACE-TRACK.ORG API","2023-07-29T14:16:13","18 SPCS","CARTOSAT 3","2019-081A","EARTH","TEME","UTC","SGP4","2023-07-29T09:17:29.621760","15.19316833","0.00111340","97.3440","267.1929","225.8786","134.1534","0","U","44804","999","20342","0.00022133000000","0.00004614","0.0000000000000","6886.041","94.779","515.573","500.239","PAYLOAD","LARGE","IND","2019-11-27","SRI",null,"3966108","235323214","0 CARTOSAT 3","1 44804U 19081A   23210.38714840  .00004614  00000-0  22133-3 0  9991","2 44804  97.3440 267.1929 0011134 225.8786 134.1534 15.19316833203425"
